{"fetched_at":"2026-03-29T02:12:04Z","count":15717,"tles":[{"name":"STARLINK-11503 [DTC]","line1":"1 63142U 25043L   26087.55408821  .00231123  00000+0  17442-2 0  9997","line2":"2 63142  43.0015 136.5917 0004037 275.6655  84.3752 15.70982630 62269","category":"Starlink"}]}